STARLINK-31486          
1 59181U 24045D   26068.06651491  .00000631  00000+0  32457-4 0  9997
2 59181  43.0039  92.8157 0001946 286.8405  73.2233 15.27575600113104
OTTER                   
1 62623U 25009Q   26068.72300813  .00012198  00000+0  45151-3 0  9990
2 62623  97.4065 151.3812 0003573 310.7710  49.3219 15.27809545 63722
